satname,norad_id,inclination_deg,eccentricity,mean_motion_rev_per_day,perigee_km,apogee_km,l1,l2
STARLINK-1008,44714,53.0536,0.0001402,15.06417707,546.1863628058127,548.1282153244656,1 44714U 19074B   25267.24054441  .00006648  00000+0  46458-3 0  9990,2 44714  53.0536 213.8386 0001402  96.9159 263.1990 15.06417707323669
STARLINK-1010,44716,53.0491,0.0008753,15.79327246,326.471938903077,338.21930978525415,1 44716U 19074D   25267.33336806  .00166798  00000+0  89120-3 0  9996,2 44716  53.0491 160.6616 0008753  69.4111 119.6594 15.79327246  5890
STARLINK-1011,44717,53.0496,0.0007163,15.69521453,355.43963545229144,365.09307209690814,1 44717U 19074E   25267.33336806  .00196286  00000+0  15976-2 0  9999,2 44717  53.0496 214.7422 0007163  70.4749 150.9227 15.69521453  5879
STARLINK-1012,44718,53.0534,0.0001301,15.06409792,546.2805630881812,548.0825309741194,1 44718U 19074F   25267.15209114  .00004169  00000+0  29850-3 0  9996,2 44718  53.0534 214.2354 0001301  94.0235 266.0903 15.06409792323642
STARLINK-1015,44721,53.0413,0.0001813,16.03392443,263.8273719305571,266.2361849296158,1 44721U 19074J   25267.17584594  .00591567  17430-3  92904-3 0  9992,2 44721  53.0413 148.4340 0001813 253.9039 106.1792 16.03392443324565
STARLINK-1017,44723,53.0527,0.000356,15.11420996,529.405584517056,534.3255063293973,1 44723U 19074L   25267.16067211  .00057603  00000+0  33602-2 0  9993,2 44723  53.0527 212.5517 0003560  43.2591 316.8679 15.11420996323674
STARLINK-1019,44724,53.0543,0.0001302,15.06440662,546.1852734112172,547.9886017245608,1 44724U 19074M   25267.14840781  .00016316  00000+0  11105-2 0  9993,2 44724  53.0543 214.2534 0001302  84.9894 275.1244 15.06440662323649
STARLINK-1020,44725,53.0542,0.0001469,15.06413577,546.152619110785,548.1872742917258,1 44725U 19074N   25267.28661660  .00003204  00000+0  23381-3 0  9998,2 44725  53.0542 233.6321 0001469  94.7075 265.4081 15.06413577323389
STARLINK-1021,44726,53.0417,0.000116,15.96408435,283.61996043156705,285.16566734838943,1 44726U 19074P   25267.33336806  .00416968  81797-4  97790-3 0  9993,2 44726  53.0417 153.7432 0001160 328.0661 166.3043 15.96408435  5984
STARLINK-1029,44734,53.0496,0.0002045,15.90040831,300.8023715368099,303.5346164838602,1 44734U 19074X   25267.33336806  .00455310  00000+0  14088-2 0  9997,2 44734  53.0496  77.7753 0002045 128.8232 150.0975 15.90040831  5962
STARLINK-1031,44736,53.0538,0.0008268,15.38753966,444.14752689966826,455.43819171501946,1 44736U 19074Z   25267.16272850  .00123158  00000+0  31238-2 0  9996,2 44736  53.0538 213.1605 0008268  47.6444 312.5258 15.38753966323671
STARLINK-1036,44741,53.0532,0.0001382,15.06414606,546.2097160294325,548.1238699978212,1 44741U 19074AE  25267.18341148  .00002162  00000+0  16391-3 0  9996,2 44741  53.0532 234.0970 0001382  90.0082 270.1066 15.06414606323371
STARLINK-1039,44744,53.0519,0.0005875,15.0962768,533.2739723722107,541.3996541027636,1 44744U 19074AH  25267.17290355  .00050083  00000+0  30745-2 0  9994,2 44744  53.0519 253.3907 0005875   7.8551 352.2531 15.09627680323102
STARLINK-1042,44747,53.0479,0.0003443,15.41064468,440.617950524751,445.31496236485964,1 44747U 19074AL  25267.13126869  .00031053  00000+0  74665-3 0  9997,2 44747  53.0479 168.6540 0003443  44.9016 315.2266 15.41064468324311
STARLINK-1043,44748,53.0525,0.0001271,15.06418624,546.2742741017591,548.0346831956322,1 44748U 19074AM  25267.22212664  .00005230  00000+0  36953-3 0  9993,2 44748  53.0525 253.9226 0001271  80.7689 279.3443 15.06418624323105
STARLINK-1046,44751,53.0528,0.000143,15.06406503,546.2013052578841,548.1819492452778,1 44751U 19074AQ  25267.17052497  .00002429  00000+0  18187-3 0  9993,2 44751  53.0528 254.1536 0001430  90.4529 269.6624 15.06406503323091
STARLINK-1047,44752,53.0713,0.0005227,15.28114617,477.8632216883716,485.03423260753334,1 44752U 19074AR  25267.23229590  .00017844  00000+0  65329-3 0  9998,2 44752  53.0713 201.0731 0005227  67.3726 292.7825 15.28114617323856
STARLINK-1048,44753,53.0536,0.0001371,15.06418415,546.2056616409282,548.1045767400092,1 44753U 19074AS  25267.12996323  .00005697  00000+0  40083-3 0  9995,2 44753  53.0536 214.3328 0001371  92.4300 267.6846 15.06418415323642
STARLINK-1053,44758,53.0422,0.00032,15.55593161,398.25979036590707,402.59807256204476,1 44758U 19074AX  25267.20725565  .00062306  00000+0  89296-3 0  9996,2 44758  53.0422 186.0272 0003200  92.9571 267.1806 15.55593161324066
STARLINK-1054,44759,53.0442,0.0009967,15.67513828,359.2967904745565,372.74059042790213,1 44759U 19074AY  25267.33336806  .00308384  00000+0  26828-2 0  9997,2 44759  53.0442 214.8409 0009967  42.1417 133.3793 15.67513828  5962
STARLINK-1056,44761,53.0429,0.0010263,15.79284683,325.57910037031616,339.35328448309065,1 44761U 19074BA  25267.33336806  .00329341  00000+0  17255-2 0  9990,2 44761  53.0429 203.9883 0010263  59.1625 132.8984 15.79284683  5890
STARLINK-1057,44762,53.0441,0.0002106,16.01150752,269.8304876174934,272.63120135358986,1 44762U 19074BB  25267.16331315  .00993106  50100-3  17849-2 0  9997,2 44762  53.0441 175.2023 0002106 122.5010 237.6224 16.01150752324195
STARLINK-1060,44765,53.0554,0.0001498,15.40142424,444.66638961618173,446.71080776554936,1 44765U 19074BE  25267.33336806  .01179391  00000+0  26339-1 0  9995,2 44765  53.0554 230.7781 0001498  70.2453 141.5397 15.40142424  5755
STARLINK-1063,44768,53.0527,0.0001241,15.06392849,546.3740363341221,548.0929132859701,1 44768U 19074BH  25267.29215999  .00007510  00000+0  52263-3 0  9991,2 44768  53.0527 253.6062 0001241  92.2237 267.8894 15.06392849323122
STARLINK-1067,44771,53.0549,0.0001363,15.06411843,546.2313410255956,548.1191811479684,1 44771U 19074BL  25267.14840355  .00001321  00000+0  10751-3 0  9999,2 44771  53.0549 254.2549 0001363  89.8635 270.2510 15.06411843323091
STARLINK-1068,44772,53.0527,0.0001455,15.06427691,546.1190644446178,548.134316178498,1 44772U 19074BM  25267.20553066  .00006243  00000+0  43732-3 0  9990,2 44772  53.0527 233.9951 0001455  88.2041 271.9115 15.06427691323373
STARLINK-1112,44925,53.0537,0.000254,15.46249796,425.9795829902896,429.43695238627424,1 44925U 20001M   25267.33336806  .00044654  00000+0  89648-3 0  9991,2 44925  53.0537 342.8474 0002540 162.8320 183.6806 15.46249796  5767
STARLINK-1114,44927,53.0561,0.0001435,15.06407905,546.1935463163481,548.1811143991608,1 44927U 20001P   25267.31057756  .00002163  00000+0  16404-3 0  9994,2 44927  53.0561  13.5250 0001435  90.3128 269.8025 15.06407905314771
STARLINK-1123,44930,53.0563,0.0001349,15.0642978,546.1860708228205,548.0545052391317,1 44930U 20001S   25267.32532713  .00004753  00000+0  33751-3 0  9991,2 44930  53.0563  13.4569 0001349  89.5636 270.5508 15.06429780314777
STARLINK-1144,44933,53.0473,0.0012506,15.50874382,405.6774080179848,422.66633096235455,1 44933U 20001V   25267.00002315  .00166294  00000+0  27693-2 0  9995,2 44933  53.0473 322.8352 0012506 311.1436  29.2855 15.50874382  5824
STARLINK-1091,44940,53.045,0.0005591,15.76728774,335.96029781445213,343.4722013181181,1 44940U 20001AC  25267.33336806  .00185674  00000+0  11129-2 0  9994,2 44940  53.0450 306.2500 0005591 328.7159 222.7213 15.76728774  5920
STARLINK-1094,44941,53.0562,0.0001432,15.06385249,546.2650516100894,548.2484843852426,1 44941U 20001AD  25266.94015340  .00014798  00000+0  10107-2 0  9991,2 44941  53.0562 355.1867 0001432  89.8531 270.2622 15.06385249314994
STARLINK-1096,44942,52.9917,0.0002134,15.7642351,339.14969190401825,342.0172417992708,1 44942U 20001AE  25266.93901266  .00144389  00000+0  88289-3 0  9999,2 44942  52.9917 134.8556 0002134 165.9946 194.1132 15.76423510318063
STARLINK-1122,44949,53.0567,0.0001508,15.06393049,546.1885160589045,548.2772076092324,1 44949U 20001AM  25267.22765329 -.00001785  00000+0 -10096-3 0  9992,2 44949  53.0567 353.8945 0001508  91.3748 268.7413 15.06393049315034
STARLINK-1080,44961,53.0548,0.0001213,15.06410043,546.340736714299,548.0208188071829,1 44961U 20001AZ  25267.15946000  .00018871  00000+0  12821-2 0  9994,2 44961  53.0548 334.2049 0001213  89.6299 270.4829 15.06410043315315
STARLINK-1090,44968,53.0554,0.0001457,15.06409429,546.1736404876392,548.1916786364363,1 44968U 20001BG  25266.89775615  .00014028  00000+0  95851-3 0  9998,2 44968  53.0554 335.3818 0001457  91.0322 269.0834 15.06409429315270
STARLINK-1107,44972,53.0124,0.0008245,15.55982487,393.71016850582873,404.88615909093187,1 44972U 20001BL  25267.31256186  .00127119  00000+0  17723-2 0  9995,2 44972  53.0124 262.8978 0008245  61.3406 298.8432 15.55982487316329
STARLINK-1132,45044,53.055,0.0001401,15.06411777,546.2052270885151,548.1456996407505,1 45044U 20006A   25267.32163493  .00000526  00000+0  54213-4 0  9999,2 45044  53.0550 293.4749 0001401  92.2831 267.8318 15.06411777311667
STARLINK-1131,45047,53.0547,0.0001293,15.06404664,546.301817766629,548.092709207167,1 45047U 20006D   25267.16504664  .00013739  00000+0  93932-3 0  9993,2 45047  53.0547 314.7178 0001293 101.1906 258.9228 15.06404664311355
STARLINK-1134,45048,53.0449,0.0008916,15.23717327,488.51198793895855,500.76752344971374,1 45048U 20006E   25267.27402832  .00071653  00000+0  29273-2 0  9995,2 45048  53.0449 297.1064 0008916  15.5290 344.5978 15.23717327311613
STARLINK-1156,45054,53.057,0.0001799,15.0640451,545.9518677534106,548.4436031912337,1 45054U 20006L   25266.87011641  .00001183  00000+0  98268-4 0  9994,2 45054  53.0570 315.5050 0001799  88.6326 271.4869 15.06404510311310
STARLINK-1159,45057,53.0562,0.0001511,15.06400016,546.1650887408878,548.2579290602771,1 45057U 20006P   25266.42043875  .00000976  00000+0  84426-4 0  9992,2 45057  53.0562 317.5215 0001511  95.7653 264.3508 15.06400016311254
STARLINK-1166,45060,53.0542,6.1e-05,15.06384826,546.8356153542727,547.6805135521372,1 45060U 20006S   25267.16132678 -.00000840  00000+0 -37552-4 0  9998,2 45060  53.0542 314.1960 0000610  77.8054 282.3003 15.06384826311363
